[{"OBJECT_NAME":"STARLINK-5025","OBJECT_ID":"2022-119AL","EPOCH":"2026-03-09T21:17:37.234464","MEAN_MOTION":15.08837327,"ECCENTRICITY":0.00011602,"INCLINATION":53.2172,"RA_OF_ASC_NODE":313.3021,"ARG_OF_PERICENTER":73.7672,"MEAN_ANOMALY":286.3447,"EPHEMERIS_TYPE":0,"CLASSIFICATION_TYPE":"U","NORAD_CAT_ID":53920,"ELEMENT_SET_NO":999,"REV_AT_EPOCH":19185,"BSTAR":5.8024836e-5,"MEAN_MOTION_DOT":6.36e-6,"MEAN_MOTION_DDOT":0},{"OBJECT_NAME":"CZ-2C DEB","OBJECT_ID":"2026-009D","EPOCH":"2026-03-09T18:06:55.672992","MEAN_MOTION":15.16841441,"ECCENTRICITY":0.00999045,"INCLINATION":97.6656,"RA_OF_ASC_NODE":143.8643,"ARG_OF_PERICENTER":42.8877,"MEAN_ANOMALY":318.0091,"EPHEMERIS_TYPE":0,"CLASSIFICATION_TYPE":"U","NORAD_CAT_ID":67587,"ELEMENT_SET_NO":999,"REV_AT_EPOCH":810,"BSTAR":0.0023439167,"MEAN_MOTION_DOT":0.00052682,"MEAN_MOTION_DDOT":0}]
